STARLINK-3250           
1 49749U 21115AB  26068.53259743  .00001308  00000+0  10026-3 0  9996
2 49749  53.2173 150.0725 0001164  99.4639 260.6485 15.08835062235502
LEMUR-2-AHMED-ASRAR     
1 60576U 24149DN  26068.73265438  .00013045  00000+0  79773-3 0  9992
2 60576  97.7021 152.9847 0001633  18.5035 341.6253 15.10376432 85541
